CSS (TIANHE)            
1 48274U 21035A   24019.17585674  .00039326  00000+0  43154-3 0  9997
2 48274  41.4686 279.5936 0007168 195.6230 164.4389 15.62432453155613
